{
  "type": "FeatureCollection",
  "features": [
    {
      "type": "Feature",
      "properties": {
        "norad_id": 35018,
        "name": "COSMOS 2251 DEB",
        "group": "cosmos-2251-debris",
        "lat": 69.4716766110021,
        "lon": -103.80617883505515,
        "alt_km": 887.9783594988612,
        "timestamp": "2025-12-02T19:35:50.950346+00:00",
        "meta_object_name": "COSMOS 2251 DEB",
        "meta_object_id": "1993-036AGF",
        "meta_epoch": "2025-12-01T16:46:55.511904",
        "meta_mean_motion": 13.67083189,
        "meta_eccentricity": 0.03484433,
        "meta_inclination": 73.9753,
        "meta_ra_of_asc_node": 128.1625,
        "meta_arg_of_pericenter": 39.757,
        "meta_mean_anomaly": 322.8528,
        "meta_ephemeris_type": 0,
        "meta_classification_type": "U",
        "meta_norad_cat_id": 35018,
        "meta_element_set_no": 999,
        "meta_rev_at_epoch": 83035,
        "meta_bstar": 0.00093003993,
        "meta_mean_motion_dot": 1.164e-05,
        "meta_mean_motion_ddot": 0,
        "tle_line1": "1 35018U 93036AGF 25335.69925361  .00001164  00000+0  93004-3 0  9997",
        "tle_line2": "2 35018  73.9753 128.1625 0348443  39.7570 322.8528 13.67083189830350"
      },
      "geometry": {
        "type": "Point",
        "coordinates": [
          -103.80617883505515,
          69.4716766110021
        ]
      }
    },
    {
      "type": "Feature",
      "properties": {
        "norad_id": 35020,
        "name": "COSMOS 2251 DEB",
        "group": "cosmos-2251-debris",
        "lat": -71.6948290159185,
        "lon": 158.1053358459214,
        "alt_km": 654.3159794605954,
        "timestamp": "2025-12-02T19:35:50.950357+00:00",
        "meta_object_name": "COSMOS 2251 DEB",
        "meta_object_id": "1993-036AGH",
        "meta_epoch": "2025-12-01T02:55:34.862592",
        "meta_mean_motion": 14.62771405,
        "meta_eccentricity": 0.00905387,
        "meta_inclination": 74.046,
        "meta_ra_of_asc_node": 221.2015,
        "meta_arg_of_pericenter": 338.0098,
        "meta_mean_anomaly": 21.7193,
        "meta_ephemeris_type": 0,
        "meta_classification_type": "U",
        "meta_norad_cat_id": 35020,
        "meta_element_set_no": 999,
        "meta_rev_at_epoch": 88068,
        "meta_bstar": 0.00020883314,
        "meta_mean_motion_dot": 1.096e-05,
        "meta_mean_motion_ddot": 0,
        "tle_line1": "1 35020U 93036AGH 25335.12193128  .00001096  00000+0  20883-3 0  9995",
        "tle_line2": "2 35020  74.0460 221.2015 0090538 338.0098  21.7193 14.62771405880682"
      },
      "geometry": {
        "type": "Point",
        "coordinates": [
          158.1053358459214,
          -71.6948290159185
        ]
      }
    },
    {
      "type": "Feature",
      "properties": {
        "norad_id": 35022,
        "name": "COSMOS 2251 DEB",
        "group": "cosmos-2251-debris",
        "lat": 40.21973660281952,
        "lon": -5.075937269021821,
        "alt_km": 713.2657652740982,
        "timestamp": "2025-12-02T19:35:50.950367+00:00",
        "meta_object_name": "COSMOS 2251 DEB",
        "meta_object_id": "1993-036AGK",
        "meta_epoch": "2025-12-01T08:53:10.905504",
        "meta_mean_motion": 14.60755993,
        "meta_eccentricity": 0.00473323,
        "meta_inclination": 74.0262,
        "meta_ra_of_asc_node": 343.6696,
        "meta_arg_of_pericenter": 186.6722,
        "meta_mean_anomaly": 173.3821,
        "meta_ephemeris_type": 0,
        "meta_classification_type": "U",
        "meta_norad_cat_id": 35022,
        "meta_element_set_no": 999,
        "meta_rev_at_epoch": 58977,
        "meta_bstar": 0.00050193581,
        "meta_mean_motion_dot": 2.458e-05,
        "meta_mean_motion_ddot": 0,
        "tle_line1": "1 35022U 93036AGK 25335.37026511  .00002458  00000+0  50194-3 0  9996",
        "tle_line2": "2 35022  74.0262 343.6696 0047332 186.6722 173.3821 14.60755993589773"
      },
      "geometry": {
        "type": "Point",
        "coordinates": [
          -5.075937269021821,
          40.21973660281952
        ]
      }
    },
    {
      "type": "Feature",
      "properties": {
        "norad_id": 35023,
        "name": "COSMOS 2251 DEB",
        "group": "cosmos-2251-debris",
        "lat": 72.45282858481323,
        "lon": -62.5693822179237,
        "alt_km": 592.0240004279503,
        "timestamp": "2025-12-02T19:35:50.950377+00:00",
        "meta_object_name": "COSMOS 2251 DEB",
        "meta_object_id": "1993-036AGL",
        "meta_epoch": "2025-12-02T03:50:05.892288",
        "meta_mean_motion": 14.9451829,
        "meta_eccentricity": 0.00346396,
        "meta_inclination": 74.0389,
        "meta_ra_of_asc_node": 233.9125,
        "meta_arg_of_pericenter": 313.7779,
        "meta_mean_anomaly": 196.4277,
        "meta_ephemeris_type": 0,
        "meta_classification_type": "U",
        "meta_norad_cat_id": 35023,
        "meta_element_set_no": 999,
        "meta_rev_at_epoch": 88121,
        "meta_bstar": 0.0020584493,
        "meta_mean_motion_dot": 0.00022538,
        "meta_mean_motion_ddot": 0,
        "tle_line1": "1 35023U 93036AGL 25336.15979042  .00022538  00000+0  20584-2 0  9990",
        "tle_line2": "2 35023  74.0389 233.9125 0034639 313.7779 196.4277 14.94518290881212"
      },
      "geometry": {
        "type": "Point",
        "coordinates": [
          -62.5693822179237,
          72.45282858481323
        ]
      }
    },
    {
      "type": "Feature",
      "properties": {
        "norad_id": 35025,
        "name": "COSMOS 2251 DEB",
        "group": "cosmos-2251-debris",
        "lat": -45.377085889198575,
        "lon": -80.66062064293925,
        "alt_km": 696.7828103686252,
        "timestamp": "2025-12-02T19:35:50.950387+00:00",
        "meta_object_name": "COSMOS 2251 DEB",
        "meta_object_id": "1993-036AGN",
        "meta_epoch": "2025-12-02T07:09:01.171872",
        "meta_mean_motion": 14.7262348,
        "meta_eccentricity": 0.0084633,
        "meta_inclination": 73.9382,
        "meta_ra_of_asc_node": 83.3817,
        "meta_arg_of_pericenter": 358.5181,
        "meta_mean_anomaly": 1.5726,
        "meta_ephemeris_type": 0,
        "meta_classification_type": "U",
        "meta_norad_cat_id": 35025,
        "meta_element_set_no": 999,
        "meta_rev_at_epoch": 88489,
        "meta_bstar": 0.00047732,
        "meta_mean_motion_dot": 3.182e-05,
        "meta_mean_motion_ddot": 0,
        "tle_line1": "1 35025U 93036AGN 25336.29793023  .00003182  00000+0  47732-3 0  9999",
        "tle_line2": "2 35025  73.9382  83.3817 0084633 358.5181   1.5726 14.72623480884899"
      },
      "geometry": {
        "type": "Point",
        "coordinates": [
          -80.66062064293925,
          -45.377085889198575
        ]
      }
    },
    {
      "type": "Feature",
      "properties": {
        "norad_id": 35026,
        "name": "COSMOS 2251 DEB",
        "group": "cosmos-2251-debris",
        "lat": 54.698872617057965,
        "lon": 1.3644596417911872,
        "alt_km": 660.7937865310387,
        "timestamp": "2025-12-02T19:35:50.950397+00:00",
        "meta_object_name": "COSMOS 2251 DEB",
        "meta_object_id": "1993-036AGP",
        "meta_epoch": "2025-12-02T06:11:44.040768",
        "meta_mean_motion": 14.53613041,
        "meta_eccentricity": 0.0082259,
        "meta_inclination": 74.0463,
        "meta_ra_of_asc_node": 338.5898,
        "meta_arg_of_pericenter": 95.049,
        "meta_mean_anomaly": 282.6573,
        "meta_ephemeris_type": 0,
        "meta_classification_type": "U",
        "meta_norad_cat_id": 35026,
        "meta_element_set_no": 999,
        "meta_rev_at_epoch": 87991,
        "meta_bstar": 8.2687e-05,
        "meta_mean_motion_dot": 3.32e-06,
        "meta_mean_motion_ddot": 0,
        "tle_line1": "1 35026U 93036AGP 25336.25814862  .00000332  00000+0  82687-4 0  9994",
        "tle_line2": "2 35026  74.0463 338.5898 0082259  95.0490 282.6573 14.53613041879914"
      },
      "geometry": {
        "type": "Point",
        "coordinates": [
          1.3644596417911872,
          54.698872617057965
        ]
      }
    },
    {
      "type": "Feature",
      "properties": {
        "norad_id": 35028,
        "name": "COSMOS 2251 DEB",
        "group": "cosmos-2251-debris",
        "lat": 61.57569263309952,
        "lon": -38.26364522039326,
        "alt_km": 639.7770962213945,
        "timestamp": "2025-12-02T19:35:50.950408+00:00",
        "meta_object_name": "COSMOS 2251 DEB",
        "meta_object_id": "1993-036AGR",
        "meta_epoch": "2025-12-02T06:25:23.155104",
        "meta_mean_motion": 14.56551575,
        "meta_eccentricity": 0.0082171,
        "meta_inclination": 74.0378,
        "meta_ra_of_asc_node": 290.8521,
        "meta_arg_of_pericenter": 67.459,
        "meta_mean_anomaly": 1.5597,
        "meta_ephemeris_type": 0,
        "meta_classification_type": "U",
        "meta_norad_cat_id": 35028,
        "meta_element_set_no": 999,
        "meta_rev_at_epoch": 88133,
        "meta_bstar": 0.00014816,
        "meta_mean_motion_dot": 6.6e-06,
        "meta_mean_motion_ddot": 0,
        "tle_line1": "1 35028U 93036AGR 25336.26762911  .00000660  00000+0  14816-3 0  9996",
        "tle_line2": "2 35028  74.0378 290.8521 0082171  67.4590   1.5597 14.56551575881330"
      },
      "geometry": {
        "type": "Point",
        "coordinates": [
          -38.26364522039326,
          61.57569263309952
        ]
      }
    }
  ]
}